KAZSTSAT                
1 43783U 18099AB  26162.62688653  .00001236  00000+0  10421-3 0  9995
2 43783  97.4264 194.8082 0008155  84.2213 275.9941 14.99850159410474
SAUDISAT 5A             
1 43831U 18102A   26162.72945315  .00005218  00000+0  19346-3 0  9995
2 43831  97.3075 224.4155 0010650 145.9703 214.2221 15.27991172414845
SAUDISAT 5B             
1 43833U 18102C   26162.68374244  .00004772  00000+0  17576-3 0  9996
2 43833  97.3182 227.4303 0011308 148.5861 211.6056 15.28250552414959
GAOFEN-10R              
1 44622U 19066A   26162.68877631  .00000984  00000+0  12770-3 0  9993
2 44622  98.0496 116.2280 0006310 142.5435 217.6219 14.83048811361567
CARTOSAT-3              
1 44804U 19081A   26162.69066318  .00004019  00000+0  19359-3 0  9998
2 44804  97.4313 224.6458 0012724 166.2778 193.8805 15.19244510362639
GAOFEN-12 01            
1 44819U 19082A   26162.74026521  .00000351  00000+0  52495-4 0  9997
2 44819  97.8106 169.2635 0002409  76.7345 283.4136 14.80454120353285
CSG-1                   
1 44873U 19092A   26162.44795788  .00000333  00000+0  48405-4 0  9999
2 44873  97.8887 346.1336 0001445  90.9927 269.1452 14.82160067350621
NEMO-HD                 
1 46277U 20061F   26162.68768598  .00009797  00000+0  21329-3 0  9990
2 46277  97.1928 224.6961 0002462  87.3051 272.8480 15.44483980321139
SENTINEL-6A             
1 46984U 20086A   26162.30786473 -.00000031  00000+0  12839-3 0  9992
2 46984  66.0388 147.2637 0007940 270.2561  89.7545 12.80929900259573
CAS500-1                
1 47932U 21022A   26162.73126588  .00006168  00000+0  28824-3 0  9996
2 47932  97.3913  58.0951 0004208 327.8408  32.2570 15.20144781289936
GAOFEN-12 02            
1 48079U 21026A   26162.75074106  .00000319  00000+0  48861-4 0  9999
2 48079  97.9920 160.9536 0003399 245.6400 114.4457 14.80291995280959
PLEIADES NEO 3          
1 48268U 21034A   26162.71548609  .00001643  00000+0  21535-3 0  9997
2 48268  97.8930 237.5611 0001437  90.2360 269.9017 14.81678269276849
PLEIADES NEO 4          
1 49070U 21073E   26162.68172671  .00000827  00000+0  11165-3 0  9991
2 49070  97.8933 237.5233 0001379  85.8020 274.3350 14.81677528260550
LANDSAT 9               
1 49260U 21088A   26162.63423096  .00000265  00000+0  68899-4 0  9996
2 49260  98.2279 232.8786 0001446  87.8682 272.2681 14.57106860250193
CSG-2                   
1 51444U 22008A   26162.75175153  .00000705  00000+0  95120-4 0  9993
2 51444  97.8890 346.4287 0001465  86.3908 273.7473 14.82154335235789
GAOFEN-12 03            
1 52912U 22069A   26162.71206832  .00000774  00000+0  10900-3 0  9994
2 52912  97.8290  50.7198 0001835 109.2525 250.8886 14.80025498213809
SWOT                    
1 54754U 22173A   26162.70063556  .00000110  00000+0  76010-4 0  9998
2 54754  77.6110  42.7169 0000249  97.9657 262.1523 14.00168934178380
GAOFEN-12 04            
1 57654U 23123A   26162.72946882  .00000860  00000+0  11994-3 0  9991
2 57654  97.9125  80.8256 0001798  85.4049 274.7368 14.80218385151820
PARS 1                  
1 59065U 24039Q   26162.74696722  .00010403  00000+0  21753-3 0  9991
2 59065  97.4816 143.4955 0011148 127.8128 232.4132 15.45612433127806
RESURS-P 4              
1 59371U 24061A   26162.71168558  .00002863  00000+0  94838-4 0  9990
2 59371  97.2747 110.7058 0001740 130.7630 229.3763 15.32100334122927
LEGION 1                
1 59625U 24081A   26162.68496561  .00003510  00000+0  18276-3 0  9999
2 59625  97.5020 240.6006 0010041  35.9996 324.1911 15.16629330116709
LEGION 2                
1 59626U 24081B   26162.64889141  .00003336  00000+0  17397-3 0  9995
2 59626  97.5020 240.6625 0011290   3.5096 356.6214 15.16607748116701
ALOS-4 (DAICHI-4)       
1 60182U 24123A   26162.68024909  .00001289  00000+0  17939-3 0  9995
2 60182  97.9243 259.9312 0001632  96.8219 263.3178 14.79476402105067
LEGION 3                
1 60452U 24146A   26162.66177816  .00003859  00000+0  21092-3 0  9994
2 60452  45.0021  60.1873 0007103 136.3399 223.8042 15.15998892101180
LEGION 4                
1 60453U 24146B   26162.46714088  .00002807  00000+0  15705-3 0  9997
2 60453  45.0001 153.1422 0014103 278.5886  81.3395 15.15989990100007
SENTINEL-2C             
1 60989U 24157A   26162.64806760  .00000075  00000+0  45398-4 0  9999
2 60989  98.5691 237.5082 0001112  80.1017 280.0292 14.30816335 92199
IONOSFERA-M 1           
1 61735U 24199A   26162.70836755  .00000043  00000+0  38685-4 0  9995
2 61735  98.7181  35.9383 0001791 117.6173 242.5187 14.22753271126926
IONOSFERA-M 2           
1 61736U 24199B   26162.67235030  .00000040  00000+0  37348-4 0  9993
2 61736  98.7179  35.8133 0001272  43.2022 316.9255 14.22756459130048
PRSC-EO1                
1 62725U 25012A   26162.71932743  .00005883  00000+0  29508-3 0  9995
2 62725  97.4231 235.2858 0004189 276.4898  83.5859 15.17700068 77365
BIOMASS                 
1 63772U 25090A   26162.51073282  .00000930  00000+0  17243-3 0  9997
2 63772  98.0741 349.9101 0001372  91.0948 269.0414 14.67536716 59856
GOSAT-GW (IBUKI GW)     
1 64694U 25141A   26162.73563235  .00000339  00000+0  68116-4 0  9993
2 64694  98.0570 100.1414 0001423  83.8388 276.2978 14.67554468 51040
