OBJECT_NAME,OBJECT_ID,EPOCH,MEAN_MOTION,ECCENTRICITY,INCLINATION,RA_OF_ASC_NODE,ARG_OF_PERICENTER,MEAN_ANOMALY,EPHEMERIS_TYPE,CLASSIFICATION_TYPE,NORAD_CAT_ID,ELEMENT_SET_NO,REV_AT_EPOCH,BSTAR,MEAN_MOTION_DOT,MEAN_MOTION_DDOT
KAZSTSAT,2018-099AB,2026-06-11T15:02:42.996192,14.99850159,.0008155,97.4264,194.8082,84.2213,275.9941,0,U,43783,999,41047,.10421E-3,.1236E-4,0
SAUDISAT 5A,2018-102A,2026-06-11T17:30:24.752160,15.27991172,.001065,97.3075,224.4155,145.9703,214.2221,0,U,43831,999,41484,.19346E-3,.5218E-4,0
SAUDISAT 5B,2018-102C,2026-06-11T16:24:35.346816,15.28250552,.0011308,97.3182,227.4303,148.5861,211.6056,0,U,43833,999,41495,.17576E-3,.4772E-4,0
GAOFEN-10R,2019-066A,2026-06-11T16:31:50.273184,14.83048811,.000631,98.0496,116.2280,142.5435,217.6219,0,U,44622,999,36156,.1277E-3,.984E-5,0
CARTOSAT-3,2019-081A,2026-06-11T16:34:33.298752,15.19244510,.0012724,97.4313,224.6458,166.2778,193.8805,0,U,44804,999,36263,.19359E-3,.4019E-4,0
GAOFEN-12 01,2019-082A,2026-06-11T17:45:58.914144,14.80454120,.0002409,97.8106,169.2635,76.7345,283.4136,0,U,44819,999,35328,.52495E-4,.351E-5,0
CSG-1,2019-092A,2026-06-11T10:45:03.560832,14.82160067,.0001445,97.8887,346.1336,90.9927,269.1452,0,U,44873,999,35062,.48405E-4,.333E-5,0
NEMO-HD,2020-061F,2026-06-11T16:30:16.068672,15.44483980,.0002462,97.1928,224.6961,87.3051,272.8480,0,U,46277,999,32113,.21329E-3,.9797E-4,0
SENTINEL-6A,2020-086A,2026-06-11T07:23:19.512672,12.80929900,.000794,66.0388,147.2637,270.2561,89.7545,0,U,46984,999,25957,.12839E-3,-.31E-6,0
CAS500-1,2021-022A,2026-06-11T17:33:01.372032,15.20144781,.0004208,97.3913,58.0951,327.8408,32.2570,0,U,47932,999,28993,.28824E-3,.6168E-4,0
GAOFEN-12 02,2021-026A,2026-06-11T18:01:04.027584,14.80291995,.0003399,97.9920,160.9536,245.6400,114.4457,0,U,48079,999,28095,.48861E-4,.319E-5,0
PLEIADES NEO 3,2021-034A,2026-06-11T17:10:17.998176,14.81678269,.0001437,97.8930,237.5611,90.2360,269.9017,0,U,48268,999,27684,.21535E-3,.1643E-4,0
PLEIADES NEO 4,2021-073E,2026-06-11T16:21:41.187744,14.81677528,.0001379,97.8933,237.5233,85.8020,274.3350,0,U,49070,999,26055,.11165E-3,.827E-5,0
LANDSAT 9,2021-088A,2026-06-11T15:13:17.554944,14.57106860,.0001446,98.2279,232.8786,87.8682,272.2681,0,U,49260,999,25019,.68899E-4,.265E-5,0
CSG-2,2022-008A,2026-06-11T18:02:31.332192,14.82154335,.0001465,97.8890,346.4287,86.3908,273.7473,0,U,51444,999,23578,.9512E-4,.705E-5,0
GAOFEN-12 03,2022-069A,2026-06-11T17:05:22.702848,14.80025498,.0001835,97.8290,50.7198,109.2525,250.8886,0,U,52912,999,21380,.109E-3,.774E-5,0
SWOT,2022-173A,2026-06-11T16:48:54.912384,14.00168934,.0000249,77.6110,42.7169,97.9657,262.1523,0,U,54754,999,17838,.7601E-4,.11E-5,0
GAOFEN-12 04,2023-123A,2026-06-11T17:30:26.106048,14.80218385,.0001798,97.9125,80.8256,85.4049,274.7368,0,U,57654,999,15182,.11994E-3,.86E-5,0
PARS 1,2024-039Q,2026-06-11T17:55:37.967808,15.45612433,.0011148,97.4816,143.4955,127.8128,232.4132,0,U,59065,999,12780,.21753E-3,.10403E-3,0
RESURS-P 4,2024-061A,2026-06-11T17:04:49.634112,15.32100334,.000174,97.2747,110.7058,130.7630,229.3763,0,U,59371,999,12292,.94838E-4,.2863E-4,0
LEGION 1,2024-081A,2026-06-11T16:26:21.028704,15.16629330,.0010041,97.5020,240.6006,35.9996,324.1911,0,U,59625,999,11670,.18276E-3,.351E-4,0
LEGION 2,2024-081B,2026-06-11T15:34:24.217824,15.16607748,.001129,97.5020,240.6625,3.5096,356.6214,0,U,59626,999,11670,.17397E-3,.3336E-4,0
ALOS-4 (DAICHI-4),2024-123A,2026-06-11T16:19:33.521376,14.79476402,.0001632,97.9243,259.9312,96.8219,263.3178,0,U,60182,999,10506,.17939E-3,.1289E-4,0
LEGION 3,2024-146A,2026-06-11T15:52:57.633024,15.15998892,.0007103,45.0021,60.1873,136.3399,223.8042,0,U,60452,999,10118,.21092E-3,.3859E-4,0
LEGION 4,2024-146B,2026-06-11T11:12:40.972032,15.15989990,.0014103,45.0001,153.1422,278.5886,81.3395,0,U,60453,999,10000,.15705E-3,.2807E-4,0
SENTINEL-2C,2024-157A,2026-06-11T15:33:13.040640,14.30816335,.0001112,98.5691,237.5082,80.1017,280.0292,0,U,60989,999,9219,.45398E-4,.75E-6,0
IONOSFERA-M 1,2024-199A,2026-06-11T17:00:02.956320,14.22753271,.0001791,98.7181,35.9383,117.6173,242.5187,0,U,61735,999,12692,.38685E-4,.43E-6,0
IONOSFERA-M 2,2024-199B,2026-06-11T16:08:11.065920,14.22756459,.0001272,98.7179,35.8133,43.2022,316.9255,0,U,61736,999,13004,.37348E-4,.4E-6,0
PRSC-EO1,2025-012A,2026-06-11T17:15:49.889952,15.17700068,.0004189,97.4231,235.2858,276.4898,83.5859,0,U,62725,999,7736,.29508E-3,.5883E-4,0
BIOMASS,2025-090A,2026-06-11T12:15:27.315648,14.67536716,.00013724,98.0741,349.9101,91.0948,269.0414,0,U,63772,999,5985,.17242718E-3,.93E-5,0
GOSAT-GW (IBUKI GW),2025-141A,2026-06-11T17:39:18.635040,14.67554468,.0001423,98.0570,100.1414,83.8388,276.2978,0,U,64694,999,5104,.68116E-4,.339E-5,0
